{"type": "FeatureCollection", "features": [{"type": "Feature", "properties": {"identifier": "b3be92e2-363c-4811-8870-28cc28a1f41b", "name": "Nomady Hof-Stellplatz Biohof Allmeind in Luchsingen", "description": "Auf dem sch\u00f6nen Bauernhof Allmeind in Luchsingen (Camp hinter dem Hof) kann man je nach Lust und Laune entspannen\u200b,\u200b die wunderbare Aussicht auf den T\u00f6di geniessen oder von hier aus wandern\u200b,\u200b velofahren und Ausfl\u00fcge unternehmen. Der Oberblegisee ist nur eines dieser Ausflugsziele. Auch die Via Glaralpina k\u00f6nnte das Ziel sein oder das Erwandern des Glarner K\u00e4sepasses. Die Ruhe wird h\u00f6chstens ab und zu durch den Zug oder einen Traktor unterbrochen. \n\nEine \u00f6ffentliche\u200b,\u200b idyllische Feuerstelle befindet sich in 200m Gehdistanz direkt an der Linth. \n\nIm Sommer sind die Milchk\u00fche\u200b,\u200b Rinder\u200b,\u200b K\u00e4lber und Ziegen auf der stattlichen Alp\u200b Bodmen-Saasberg,\u200b wo Familie Hefti feinsten Glarner Alpk\u00e4se herstellt\u200b,\u200b der auch im Hofl\u00e4deli zu kaufen ist. Die H\u00fchner jedoch bleiben zu Hause und sind die direkten Nachbarn im Camp.\n\nDie Toilette im Stall darf mitbenutzt werden und Frischwasser (kalt und warm) steht zur Verf\u00fcgung. Bei schlechtem Wetter kann das Tenn als Ess- und Aufenthaltsraum genutzt werden.", "image": "https://visitglpimtsoch.sos-ch-dk-2.exoscale-cdn.com/catalog/a/a/1/e/aa1e23a13f36b15ff69b49c1abb5682325ec7cee_Morgenstimmung.jpeg", "openstreetmap_id": "way/306301877"}, "geometry": {"type": "Point", "coordinates": ["9.04334470851414", "46.97096518231716"]}}]}