{"type": "FeatureCollection", "features": [{"type": "Feature", "properties": {"identifier": "9f4777f2-6803-4529-b73e-83e9a6078e0c", "name": "Chalet adr Halde, Nr. 201", "description": "<p style=\"margin-top:12.0pt\">Bis zu den Bergbahnen ist es ein 10-min\u00fctiger Spaziergang am H\u00f6henweg entlang.</p><p style=\"margin-top:12.0pt\">Die Wohnung eignet sich insbesondere f\u00fcr mehrere Familien, Generationen oder Freunde, die gemeinsam Ferien machen wollen. Die beiden grossen Zimmer im unteren Stock bieten dank eigenem En suite-Bad und Zugang zum Garten viel Privatsph\u00e4re. Oben befindet sich das grosse, helle Wohnzimmer mit Chemin\u00e9e sowie zwei weitere Schlafzimmer und ein Bad.&nbsp;</p><div><br></div>", "url": "https://chaletbraunwald.ch/", "image": "https://visitglpimtsoch.sos-ch-dk-2.exoscale-cdn.com/catalog/f/3/4/c/f34c14787ff771c935b80f92a81464a039f01121_glarnerland_ferienwohnung_chalet_adr_Halde_201_2.jpg", "openstreetmap_id": "way/900470848"}, "geometry": {"type": "Point", "coordinates": ["9.001622200012209", "46.942593664967276"]}}]}